[
    {
        "Altitude(m)": 558893.8891873446,
        "Argument of Periapsis(deg)": 0.006622991110713501,
        "Eccentricity": 0.0,
        "Inclination(deg)": 53.0,
        "Latitude(deg)": 48.73697534912786,
        "Longitude(deg)": 75.5592023063222,
        "Mean Anomaly(deg)": 110.09159286757756,
        "RAAN(deg)": 54.99014336852802,
        "Satellite Name": "Starlink Shell 1 248",
        "Satellite Number": 248,
        "Semi-Major Axis(m)": 6931778.249405717,
        "Time(s)": 190
    },
    {
        "Altitude(m)": 558833.568765595,
        "Argument of Periapsis(deg)": 0.0069715695902247375,
        "Eccentricity": 0.0,
        "Inclination(deg)": 53.0,
        "Latitude(deg)": 48.473181460229995,
        "Longitude(deg)": 76.37586719108789,
        "Mean Anomaly(deg)": 110.71842407113428,
        "RAAN(deg)": 54.98962459845054,
        "Satellite Name": "Starlink Shell 1 248",
        "Satellite Number": 248,
        "Semi-Major Axis(m)": 6931778.249405717,
        "Time(s)": 200
    },
    {
        "Altitude(m)": 558771.826984011,
        "Argument of Periapsis(deg)": 0.007320148069735974,
        "Eccentricity": 0.0,
        "Inclination(deg)": 53.0,
        "Latitude(deg)": 48.20304842855488,
        "Longitude(deg)": 77.18358555952243,
        "Mean Anomaly(deg)": 111.345255274691,
        "RAAN(deg)": 54.98910582837308,
        "Satellite Name": "Starlink Shell 1 248",
        "Satellite Number": 248,
        "Semi-Major Axis(m)": 6931778.249405717,
        "Time(s)": 210
    },
    {
        "Altitude(m)": 558708.7017468776,
        "Argument of Periapsis(deg)": 0.007668726549247212,
        "Eccentricity": 0.0,
        "Inclination(deg)": 53.0,
        "Latitude(deg)": 47.926700716042966,
        "Longitude(deg)": 77.98232897483904,
        "Mean Anomaly(deg)": 111.97208647824776,
        "RAAN(deg)": 54.9885870582956,
        "Satellite Name": "Starlink Shell 1 248",
        "Satellite Number": 248,
        "Semi-Major Axis(m)": 6931778.249405717,
        "Time(s)": 220
    },
    {
        "Altitude(m)": 558644.2318630255,
        "Argument of Periapsis(deg)": 0.00801730502875845,
        "Eccentricity": 0.0,
        "Inclination(deg)": 53.0,
        "Latitude(deg)": 47.64426240903231,
        "Longitude(deg)": 78.7720807944185,
        "Mean Anomaly(deg)": 112.59891768180445,
        "RAAN(deg)": 54.98806828821812,
        "Satellite Name": "Starlink Shell 1 248",
        "Satellite Number": 248,
        "Semi-Major Axis(m)": 6931778.249405717,
        "Time(s)": 230
    },
    {
        "Altitude(m)": 558578.4570266126,
        "Argument of Periapsis(deg)": 0.008365883508269684,
        "Eccentricity": 0.0,
        "Inclination(deg)": 53.0,
        "Latitude(deg)": 47.3558570540212,
        "Longitude(deg)": 79.55283612254217,
        "Mean Anomaly(deg)": 113.22574888536116,
        "RAAN(deg)": 54.98754951814066,
        "Satellite Name": "Starlink Shell 1 248",
        "Satellite Number": 248,
        "Semi-Major Axis(m)": 6931778.249405717,
        "Time(s)": 240
    },
    {
        "Altitude(m)": 558511.4177975145,
        "Argument of Periapsis(deg)": 0.008714461987780921,
        "Eccentricity": 0.0,
        "Inclination(deg)": 53.0,
        "Latitude(deg)": 47.06160750463041,
        "Longitude(deg)": 80.32460024471496,
        "Mean Anomaly(deg)": 113.85258008891786,
        "RAAN(deg)": 54.987030748063184,
        "Satellite Name": "Starlink Shell 1 248",
        "Satellite Number": 248,
        "Semi-Major Axis(m)": 6931778.249405717,
        "Time(s)": 250
    },
    {
        "Altitude(m)": 558443.1555812171,
        "Argument of Periapsis(deg)": 0.009063040467292158,
        "Eccentricity": 0.0,
        "Inclination(deg)": 53.0,
        "Latitude(deg)": 46.76163577964098,
        "Longitude(deg)": 81.08738857279637,
        "Mean Anomaly(deg)": 114.47941129247455,
        "RAAN(deg)": 54.98651197798571,
        "Satellite Name": "Starlink Shell 1 248",
        "Satellite Number": 248,
        "Semi-Major Axis(m)": 6931778.249405717,
        "Time(s)": 260
    },
    {
        "Altitude(m)": 558373.712608304,
        "Argument of Periapsis(deg)": 0.009411618946803396,
        "Eccentricity": 0.0,
        "Inclination(deg)": 53.0,
        "Latitude(deg)": 46.45606293192282,
        "Longitude(deg)": 81.84122659123179,
        "Mean Anomaly(deg)": 115.10624249603129,
        "RAAN(deg)": 54.985993207908244,
        "Satellite Name": "Starlink Shell 1 248",
        "Satellite Number": 248,
        "Semi-Major Axis(m)": 6931778.249405717,
        "Time(s)": 270
    },
    {
        "Altitude(m)": 558303.1319134935,
        "Argument of Periapsis(deg)": 0.009760197426314633,
        "Eccentricity": 0.0,
        "Inclination(deg)": 53.0,
        "Latitude(deg)": 46.14500892801739,
        "Longitude(deg)": 82.58614829437809,
        "Mean Anomaly(deg)": 115.73307369958803,
        "RAAN(deg)": 54.98547443783076,
        "Satellite Name": "Starlink Shell 1 248",
        "Satellite Number": 248,
        "Semi-Major Axis(m)": 6931778.249405717,
        "Time(s)": 280
    },
    {
        "Altitude(m)": 558231.4573142782,
        "Argument of Periapsis(deg)": 0.01010877590582587,
        "Eccentricity": 0.0,
        "Inclination(deg)": 53.0,
        "Latitude(deg)": 45.82859253809554,
        "Longitude(deg)": 83.32219614325304,
        "Mean Anomaly(deg)": 116.35990490314472,
        "RAAN(deg)": 54.98495566775329,
        "Satellite Name": "Starlink Shell 1 248",
        "Satellite Number": 248,
        "Semi-Major Axis(m)": 6931778.249405717,
        "Time(s)": 290
    },
    {
        "Altitude(m)": 558158.7333891367,
        "Argument of Periapsis(deg)": 0.010457354385337106,
        "Eccentricity": 0.0,
        "Inclination(deg)": 53.0,
        "Latitude(deg)": 45.50693123597145,
        "Longitude(deg)": 84.0494210311218,
        "Mean Anomaly(deg)": 116.98673610670144,
        "RAAN(deg)": 54.98443689767582,
        "Satellite Name": "Starlink Shell 1 248",
        "Satellite Number": 248,
        "Semi-Major Axis(m)": 6931778.249405717,
        "Time(s)": 300
    },
    {
        "Altitude(m)": 558085.0054553573,
        "Argument of Periapsis(deg)": 0.010805932864848343,
        "Eccentricity": 0.0,
        "Inclination(deg)": 53.0,
        "Latitude(deg)": 45.18014110882221,
        "Longitude(deg)": 84.76788074705391,
        "Mean Anomaly(deg)": 117.61356731025818,
        "RAAN(deg)": 54.98391812759834,
        "Satellite Name": "Starlink Shell 1 248",
        "Satellite Number": 248,
        "Semi-Major Axis(m)": 6931778.249405717,
        "Time(s)": 310
    },
    {
        "Altitude(m)": 558010.3195464538,
        "Argument of Periapsis(deg)": 0.01115451134435958,
        "Eccentricity": 0.0,
        "Inclination(deg)": 53.0,
        "Latitude(deg)": 44.84833677623938,
        "Longitude(deg)": 85.47763996494584,
        "Mean Anomaly(deg)": 118.24039851381487,
        "RAAN(deg)": 54.983399357520874,
        "Satellite Name": "Starlink Shell 1 248",
        "Satellite Number": 248,
        "Semi-Major Axis(m)": 6931778.249405717,
        "Time(s)": 320
    },
    {
        "Altitude(m)": 557934.7223892286,
        "Argument of Periapsis(deg)": 0.011503089823870818,
        "Eccentricity": 0.0,
        "Inclination(deg)": 53.0,
        "Latitude(deg)": 44.511631318215954,
        "Longitude(deg)": 86.17877024662263,
        "Mean Anomaly(deg)": 118.86722971737159,
        "RAAN(deg)": 54.9828805874434,
        "Satellite Name": "Starlink Shell 1 248",
        "Satellite Number": 248,
        "Semi-Major Axis(m)": 6931778.249405717,
        "Time(s)": 330
    },
    {
        "Altitude(m)": 557858.2613804442,
        "Argument of Periapsis(deg)": 0.011851668303382053,
        "Eccentricity": 0.0,
        "Inclination(deg)": 53.0,
        "Latitude(deg)": 44.17013621165908,
        "Longitude(deg)": 86.87134854739043,
        "Mean Anomaly(deg)": 119.49406092092829,
        "RAAN(deg)": 54.98236181736593,
        "Satellite Name": "Starlink Shell 1 248",
        "Satellite Number": 248,
        "Semi-Major Axis(m)": 6931778.249405717,
        "Time(s)": 340
    },
    {
        "Altitude(m)": 557780.9845631233,
        "Argument of Periapsis(deg)": 0.012200246782893292,
        "Eccentricity": 0.0,
        "Inclination(deg)": 53.0,
        "Latitude(deg)": 43.823961275009204,
        "Longitude(deg)": 87.55545725081643,
        "Mean Anomaly(deg)": 120.12089212448502,
        "RAAN(deg)": 54.98184304728846,
        "Satellite Name": "Starlink Shell 1 248",
        "Satellite Number": 248,
        "Semi-Major Axis(m)": 6931778.249405717,
        "Time(s)": 350
    },
    {
        "Altitude(m)": 557702.9406025534,
        "Argument of Periapsis(deg)": 0.012548825262404526,
        "Eccentricity": 0.0,
        "Inclination(deg)": 53.0,
        "Latitude(deg)": 43.473214620538805,
        "Longitude(deg)": 88.23118422067758,
        "Mean Anomaly(deg)": 120.74772332804176,
        "RAAN(deg)": 54.98132427721097,
        "Satellite Name": "Starlink Shell 1 248",
        "Satellite Number": 248,
        "Semi-Major Axis(m)": 6931778.249405717,
        "Time(s)": 360
    },
    {
        "Altitude(m)": 557624.178761873,
        "Argument of Periapsis(deg)": 0.012897403741915765,
        "Eccentricity": 0.0,
        "Inclination(deg)": 53.0,
        "Latitude(deg)": 43.11800261390264,
        "Longitude(deg)": 88.89862135782495,
        "Mean Anomaly(deg)": 121.37455453159845,
        "RAAN(deg)": 54.98080550713351,
        "Satellite Name": "Starlink Shell 1 248",
        "Satellite Number": 248,
        "Semi-Major Axis(m)": 6931778.249405717,
        "Time(s)": 370
    }
]